IRIDIUM 155             
1 43573U 18061E   23311.84058086  .00000769  00000+0  26752-3 0  9993
2 43573  86.3933  94.7126 0001883  94.5339 265.6072 14.34219818276866
IRIDIUM 154             
1 43574U 18061F   23311.47270815  .00000558  00000+0  19204-3 0  9999
2 43574  86.3933  94.9534 0002076  83.7618 276.3814 14.34218855276859
IRIDIUM 163             
1 43575U 18061G   23310.68622754  .00000643  00000+0  22241-3 0  9995
2 43575  86.3931  95.2275 0002221  89.8922 270.2528 14.34221608276711
IRIDIUM 156             
1 43576U 18061H   23312.12598183  .00000737  00000+0  25618-3 0  9990
2 43576  86.3933  94.6312 0002134  98.3499 261.7938 14.34224795276907
IRIDIUM 164             
1 43577U 18061J   23311.47905290 -.00000196  00000+0 -76979-4 0  9997
2 43577  86.3934  94.9272 0002039  96.4801 263.6627 14.34216935276865
IRIDIUM 159             
1 43578U 18061K   23311.79618015  .00001026  00000+0  35917-3 0  9996
2 43578  86.3933  94.7516 0001973  90.3644 269.7778 14.34221047276873
IRIDIUM 180             
1 43922U 19002A   23311.58637125  .00000576  00000+0  19870-3 0  9994
2 43922  86.4013  31.7026 0002334  90.5817 269.5646 14.34222001252450
IRIDIUM 176             
1 43923U 19002B   23311.93138122  .00002814  00000+0  44232-3 0  9994
2 43923  86.6143  31.5911 0002318  92.8040 267.3443 14.72251817259146
IRIDIUM 168             
1 43924U 19002C   23311.51026072  .00000813  00000+0  28335-3 0  9992
2 43924  86.4016  31.7847 0002218  90.2416 269.9034 14.34221458252426
IRIDIUM 173             
1 43925U 19002D   23311.77664990  .00000730  00000+0  25346-3 0  9995
2 43925  86.4013  31.6015 0002031  91.0365 269.1063 14.34221323252453
IRIDIUM 169             
1 43926U 19002E   23311.82502939  .00000955  00000+0  30554-3 0  9992
2 43926  86.4233  63.1891 0001735 202.7233 157.3889 14.38618643253303
IRIDIUM 172             
1 43927U 19002F   23310.65400865  .00000811  00000+0  28263-3 0  9993
2 43927  86.4012  32.0751 0002177  91.4598 268.6847 14.34223776252299
IRIDIUM 175             
1 43928U 19002G   23311.72138504  .00002614  00000+0  41063-3 0  9997
2 43928  86.1553  17.4060 0002256  95.0047 265.1427 14.72241291259101
IRIDIUM 171             
1 43929U 19002H   23311.96058228  .00000734  00000+0  25509-3 0  9996
2 43929  86.4023  31.7303 0002205  94.9651 265.1796 14.34222285252471
IRIDIUM 170             
1 43930U 19002J   23311.73364244  .00002731  00000+0  42919-3 0  9994
2 43930  86.6144  31.6783 0002271  98.0358 262.1117 14.72253219259128
IRIDIUM 167             
1 43931U 19002K   23311.60540136  .00000704  00000+0  24425-3 0  9997
2 43931  86.4011  31.6918 0002229  96.0460 264.0989 14.34221751252423
IRIDIUM 181             
1 56726U 23068S   23311.80886614  .00001025  00000+0  29714-3 0  9999
2 56726  86.8618  74.5510 0003033 109.6229 250.5300 14.43579110 25057
IRIDIUM 177             
1 56727U 23068T   23311.81580748  .00003886  00000+0  50752-3 0  9993
2 56727  86.1986  60.9189 0002235  90.9483 269.1994 14.80256607 25483
IRIDIUM 174             
1 56728U 23068U   23311.81040245  .00003894  00000+0  50850-3 0  9995
2 56728  86.1990  61.0070 0001942  92.5862 267.5581 14.80260722 25480
IRIDIUM 178             
1 56729U 23068V   23311.60221599  .00004110  00000+0  53727-3 0  9994
2 56729  86.5773  68.0208 0002006  89.0467 271.0985 14.80237714 25458
IRIDIUM 179             
1 56730U 23068W   23312.40800290  .00003617  00000+0  47230-3 0  9999
2 56730  86.6786  69.0179 0002157  93.1397 267.0072 14.80253164 25570
